STARLINK-31100          
1 58714U 24002K   26068.67219712 -.00000334  00000+0  83672-6 0  9992
2 58714  53.1594 229.9438 0001045  90.8021 269.3100 15.30196314122011
YAOGAN-43 01G           
1 60464U 24148G   26068.44348481  .00010133  00000+0  35873-3 0  9993
2 60464  35.0006  62.0013 0007382 306.3543  53.6492 15.28332833 87004
