[{"OBJECT_NAME":"STARLINK-31100","OBJECT_ID":"2024-002K","EPOCH":"2026-03-09T16:07:57.831168","MEAN_MOTION":15.30196314,"ECCENTRICITY":0.00010453,"INCLINATION":53.1594,"RA_OF_ASC_NODE":229.9438,"ARG_OF_PERICENTER":90.8021,"MEAN_ANOMALY":269.31,"EPHEMERIS_TYPE":0,"CLASSIFICATION_TYPE":"U","NORAD_CAT_ID":58714,"ELEMENT_SET_NO":999,"REV_AT_EPOCH":12201,"BSTAR":8.36718e-7,"MEAN_MOTION_DOT":-3.34e-6,"MEAN_MOTION_DDOT":0},{"OBJECT_NAME":"YAOGAN-43 01G","OBJECT_ID":"2024-148G","EPOCH":"2026-03-09T10:38:37.087584","MEAN_MOTION":15.28332833,"ECCENTRICITY":0.00073829,"INCLINATION":35.0006,"RA_OF_ASC_NODE":62.0013,"ARG_OF_PERICENTER":306.3543,"MEAN_ANOMALY":53.6492,"EPHEMERIS_TYPE":0,"CLASSIFICATION_TYPE":"U","NORAD_CAT_ID":60464,"ELEMENT_SET_NO":999,"REV_AT_EPOCH":8700,"BSTAR":0.00035872736,"MEAN_MOTION_DOT":0.00010133,"MEAN_MOTION_DDOT":0}]
